*******************************************************************************
 Revised: Jan 23, 2020            Dione  / (Saturn)                         604
                        http://ssd.jpl.nasa.gov/?sat_phys_par
                          http://ssd.jpl.nasa.gov/?sat_elem

 SATELLITE PHYSICAL PROPERTIES:
  Mean Radius (km)        = 562.5   +- 5     Density (g/cm^3) =  1.469 +- 0.012
  Mass (10^19 kg)         = 109.572          Geometric Albedo =  0.6
  GM (km^3/s^2)           =  73.116 +- 0.02 V(1,0)            = +0.8

 SATELLITE ORBITAL DATA (mean values referred to local Laplace plane):
  Semi-major axis, a (km) = 377.42(10^3)    Orbital period    = 2.736915 d
  Eccentricity, e         = 0.0022          Rotational period = Synchronous
  Inclination, i  (deg)   = 0.028
*******************************************************************************
 
 
*******************************************************************************
Ephemeris / WWW_USER Wed Jun 17 13:24:35 2020 Pasadena, USA      / Horizons
*******************************************************************************
Target body name: Dione (604)                     {source: sat427l_merged_DE438}
Center body name: Solar System Barycenter (0)     {source: DE431mx}
Center-site name: BODY CENTER
*******************************************************************************
Start time      : A.D. 2000-Jun-05 00:00:00.0000 TDB
Stop  time      : A.D. 2040-May-26 00:00:00.0000 TDB
Step-size       : 14400 minutes
*******************************************************************************
Center geodetic : 0.00000000,0.00000000,0.0000000 {E-lon(deg),Lat(deg),Alt(km)}
Center cylindric: 0.00000000,0.00000000,0.0000000 {E-lon(deg),Dxy(km),Dz(km)}
Center radii    : (undefined)                                                  
Output units    : AU-D
Output type     : GEOMETRIC cartesian states
Output format   : 3 (position, velocity, LT, range, range-rate)
Reference frame : Ecliptic of J2000.0
*******************************************************************************
JDTDB
   X     Y     Z
   VX    VY    VZ
   LT    RG    RR
*******************************************************************************
$$SOE
2458460.500000000 = A.D. 2018-Dec-08 00:00:00.0000 TDB 
 X = 1.832720997449758E+00 Y =-9.885815743136900E+00 Z = 9.969787724301390E-02
 VX= 8.702242156821265E-03 VY=-3.216222482385097E-03 VZ= 1.647165502009381E-03
 LT= 5.807143925914601E-02 RG= 1.005475801938930E+01 RR= 4.764707771895272E-03
2458470.500000000 = A.D. 2018-Dec-18 00:00:00.0000 TDB 
 X = 1.886345947634907E+00 Y =-9.872146348118378E+00 Z = 9.543397481564699E-02
 VX=-5.869975521795207E-04 VY= 1.010787680288950E-03 VZ= 3.424157987572992E-04
 LT= 5.805090730854200E-02 RG= 1.005120302234388E+01 RR=-1.099693861045940E-03
2458480.500000000 = A.D. 2018-Dec-28 00:00:00.0000 TDB 
 X = 1.940303275376162E+00 Y =-9.865208073839479E+00 Z = 9.481039042067405E-02
 VX= 8.194678616829631E-03 VY= 5.298900459888758E-03 VZ=-2.740652053061115E-03
 LT= 5.807084684837150E-02 RG= 1.005465544664335E+01 RR=-3.643529738442183E-03
2458490.500000000 = A.D. 2019-Jan-07 00:00:00.0000 TDB 
 X = 1.987496379411692E+00 Y =-9.854025336170235E+00 Z = 9.275722252722482E-02
 VX= 7.471603427112400E-03 VY=-3.717958123568785E-03 VZ= 2.071990315316348E-03
 LT= 5.806064006135372E-02 RG= 1.005288819625437E+01 RR= 5.140694829796260E-03
2458500.500000000 = A.D. 2019-Jan-17 00:00:00.0000 TDB 
 X = 2.041871842157069E+00 Y =-9.840040608480374E+00 Z = 8.868273206098380E-02
 VX=-4.983977919652281E-04 VY= 2.332507336662475E-03 VZ=-3.164323731922983E-04
 LT= 5.804424784043304E-02 RG= 1.005004997118435E+01 RR=-2.387818317930557E-03
2458510.500000000 = A.D. 2019-Jan-27 00:00:00.0000 TDB 
 X = 2.094663186756711E+00 Y =-9.832584734315647E+00 Z = 8.832722866549719E-02
 VX= 9.271644487934891E-03 VY= 4.566526534482676E-03 VZ=-2.418178755902846E-03
 LT= 5.806482726126721E-02 RG= 1.005361318744533E+01 RR=-2.555636192790923E-03
2458520.500000000 = A.D. 2019-Feb-06 00:00:00.0000 TDB 
 X = 2.141885099998887E+00 Y =-9.819603654988645E+00 Z = 8.575442184534214E-02
 VX= 6.103244996744966E-03 VY=-3.933332684704700E-03 VZ= 2.359826078840740E-03
 LT= 5.804888445973599E-02 RG= 1.005085277693041E+01 RR= 5.163599965104660E-03
2458530.500000000 = A.D. 2019-Feb-16 00:00:00.0000 TDB 
 X = 2.196829537972833E+00 Y =-9.805481243341847E+00 Z = 8.197802533082717E-02
 VX=-8.009743599949417E-05 VY= 3.580399392996027E-03 VZ=-9.686868077602620E-04
 LT= 5.803756352043535E-02 RG= 1.004889261705367E+01 RR=-3.519085324552631E-03
2458540.500000000 = A.D. 2019-Feb-26 00:00:00.0000 TDB 
 X = 2.248366975390092E+00 Y =-9.797283315397639E+00 Z = 8.177937614485989E-02
 VX= 1.010641183318456E-02 VY= 3.630808713365841E-03 VZ=-1.965891455662032E-03
 LT= 5.805720471415538E-02 RG= 1.005229338432561E+01 RR=-1.294222910419072E-03
2458550.500000000 = A.D. 2019-Mar-08 00:00:00.0000 TDB 
 X = 2.295855695434017E+00 Y =-9.782589860386393E+00 Z = 7.870679186468464E-02
 VX= 4.677186835417856E-03 VY=-3.845695359537617E-03 VZ= 2.494186376702346E-03
 LT= 5.803640531248326E-02 RG= 1.004869207956325E+01 RR= 4.832003557141939E-03
2458560.500000000 = A.D. 2019-Mar-18 00:00:00.0000 TDB 
 X = 2.351144636403907E+00 Y =-9.768464611109405E+00 Z = 7.531872632591727E-02
 VX= 6.426131276974448E-04 VY= 4.687697211074852E-03 VZ=-1.576922217269838E-03
 LT= 5.803072715103833E-02 RG= 1.004770893638560E+01 RR=-4.418868018524005E-03
2458570.500000000 = A.D. 2019-Mar-28 00:00:00.0000 TDB 
 X = 2.401402884762443E+00 Y =-9.759294338841325E+00 Z = 7.515644945802606E-02
 VX= 1.064737019796133E-02 VY= 2.550353331630472E-03 VZ=-1.409499371864232E-03
 LT= 5.804789860388314E-02 RG= 1.005068208128090E+01 RR= 5.701540494015603E-05
2458580.500000000 = A.D. 2019-Apr-07 00:00:00.0000 TDB 
 X = 2.449368259093436E+00 Y =-9.743025466442873E+00 Z = 7.163338677245371E-02
 VX= 3.279109101421377E-03 VY=-3.455248779226817E-03 VZ= 2.466870722007593E-03
 LT= 5.802343425167541E-02 RG= 1.004644621000427E+01 RR= 4.167944766665688E-03
2458590.500000000 = A.D. 2019-Apr-17 00:00:00.0000 TDB 
 X = 2.504746195494267E+00 Y =-9.728979803767960E+00 Z = 6.869943490742640E-02
 VX= 1.625229070201263E-03 VY= 5.594323366685249E-03 VZ=-2.105324676053944E-03
 LT= 5.802356063578269E-02 RG= 1.004646809273411E+01 RR=-5.026732466497350E-03
2458600.500000000 = A.D. 2019-Apr-27 00:00:00.0000 TDB 
 X = 2.553764420877734E+00 Y =-9.718614291127363E+00 Z = 6.845067509890350E-02
 VX= 1.086013856387803E-02 VY= 1.395467128037953E-03 VZ=-7.825430557113260E-04
 LT= 5.803687932164046E-02 RG= 1.004877415170465E+01 RR= 1.405013475602232E-03
2458610.500000000 = A.D. 2019-May-07 00:00:00.0000 TDB 
 X = 2.602373990470265E+00 Y =-9.700949785666047E+00 Z = 6.455291369656441E-02
 VX= 1.990300489999664E-03 VY=-2.782262143965018E-03 VZ= 2.280628906724268E-03
 LT= 5.801017100727631E-02 RG= 1.004414975042472E+01 RR= 3.217525984932937E-03
2458620.500000000 = A.D. 2019-May-17 00:00:00.0000 TDB 
 X = 2.657569031850510E+00 Y =-9.687012050498922E+00 Z = 6.211191622677709E-02
 VX= 2.809133899996522E-03 VY= 6.253850855617808E-03 VZ=-2.523910819863489E-03
 LT= 5.801586028423724E-02 RG= 1.004513481819431E+01 RR=-5.303306251535592E-03
2458630.500000000 = A.D. 2019-May-27 00:00:00.0000 TDB 
 X = 2.705445068930189E+00 Y =-9.675249267320945E+00 Z = 6.165887608531386E-02
 VX= 1.072969811382309E-02 VY= 2.380711568049726E-04 VZ=-1.212876144487036E-04
 LT= 5.802418210252584E-02 RG= 1.004657569636507E+01 RR= 2.659386980917426E-03
2458640.500000000 = A.D. 2019-Jun-06 00:00:00.0000 TDB 
 X = 2.754816715731511E+00 Y =-9.656399550038122E+00 Z = 5.748288135185590E-02
 VX= 8.837616615346661E-04 VY=-1.861526394751990E-03 VZ= 1.946608910745501E-03
 LT= 5.799677955552483E-02 RG= 1.004183109243024E+01 RR= 2.043665197984705E-03
2458650.500000000 = A.D. 2019-Jun-16 00:00:00.0000 TDB 
 X = 2.809556024390921E+00 Y =-9.642543411447674E+00 Z = 5.554501264591070E-02
 VX= 4.125267798724186E-03 VY= 6.632243295227391E-03 VZ=-2.808161810600561E-03
 LT= 5.800740786961528E-02 RG= 1.004367132796937E+01 RR=-5.228914862079723E-03
2458660.500000000 = A.D. 2019-Jun-26 00:00:00.0000 TDB 
 X = 2.856440383619872E+00 Y =-9.629213224416604E+00 Z = 5.478148327570509E-02
 VX= 1.026026209166377E-02 VY=-8.470398526740551E-04 VZ= 5.346569954344028E-04
 LT= 5.800989953959313E-02 RG= 1.004410274725243E+01 RR= 3.732881331748556E-03
2458670.500000000 = A.D. 2019-Jul-06 00:00:00.0000 TDB 
 X = 2.906632527363524E+00 Y =-9.609408231355488E+00 Z = 5.043974245843983E-02
 VX= 2.482321077324342E-05 VY=-7.439721087691806E-04 VZ= 1.485178992433658E-03
 LT= 5.798338046763740E-02 RG= 1.003951111227980E+01 RR= 7.267481077570892E-04
2458680.500000000 = A.D. 2019-Jul-16 00:00:00.0000 TDB 
 X = 2.960656764615894E+00 Y =-9.595552838155294E+00 Z = 4.898527047196884E-02
 VX= 5.494862818347690E-03 VY= 6.712143726607341E-03 VZ=-2.941340200511510E-03
 LT= 5.799797314806447E-02 RG= 1.004203775657208E+01 RR=-4.808029060222291E-03
2458690.500000000 = A.D. 2019-Jul-26 00:00:00.0000 TDB 
 X = 3.006744300258485E+00 Y =-9.580527140276635E+00 Z = 4.782270967689128E-02
 VX= 9.479636906035037E-03 VY=-1.788852078531594E-03 VZ= 1.145349520794614E-03
 LT= 5.799417031721035E-02 RG= 1.004137931682072E+01 RR= 4.550745709318812E-03
2458700.500000000 = A.D. 2019-Aug-05 00:00:00.0000 TDB 
 X = 3.057752641143995E+00 Y =-9.560003707130926E+00 Z = 4.343722365885513E-02
 VX=-5.398356176371034E-04 VY= 5.088744187577139E-04 VZ= 9.240627450350508E-04
 LT= 5.797003980251401E-02 RG= 1.003720124771738E+01 RR=-6.451386432789713E-04
2458710.500000000 = A.D. 2019-Aug-15 00:00:00.0000 TDB 
 X = 3.110828354157662E+00 Y =-9.546020933109993E+00 Z = 4.241891420417908E-02
 VX= 6.838621861577734E-03 VY= 6.493585000858154E-03 VZ=-2.915813338695179E-03
 LT= 5.798734535379833E-02 RG= 1.004019761103773E+01 RR=-4.067430420863116E-03
